STARLINK-1547
1 46347U 20062Y   26090.83335647  .00034743  00000+0  30178-3 0  9992
2 46347  53.0346 169.9029 0003150 322.4424 302.7237 15.68769958  5983
